{
  "type": "FeatureCollection",
  "features": [
    {
      "type": "Feature",
      "properties": {
        "name": "The Rings of Saturn Route"
      },
      "geometry": {
        "type": "LineString",
        "coordinates": [
          [1.2974, 52.6309],
          [1.6667, 52.515],
          [1.7507, 52.4745],
          [1.699, 52.385],
          [1.6763, 52.3274],
          [1.596, 52.319],
          [1.6282, 52.274],
          [1.618, 52.215],
          [1.5996, 52.1548],
          [1.542, 52.094],
          [1.57, 52.06]
        ]
      }
    }
  ]
}
